[{"OBJECT_NAME":"COSMOS 2547","OBJECT_ID":"2020-075A","EPOCH":"2026-03-02T10:07:23.038752","MEAN_MOTION":2.13100073,"ECCENTRICITY":0.00067076,"INCLINATION":64.5998,"RA_OF_ASC_NODE":196.0353,"ARG_OF_PERICENTER":229.5207,"MEAN_ANOMALY":130.3796,"EPHEMERIS_TYPE":0,"CLASSIFICATION_TYPE":"U","NORAD_CAT_ID":46805,"ELEMENT_SET_NO":999,"REV_AT_EPOCH":4163,"BSTAR":0,"MEAN_MOTION_DOT":-1.2e-7,"MEAN_MOTION_DDOT":0},{"OBJECT_NAME":"GPS BIII-4","OBJECT_ID":"2020-078A","EPOCH":"2026-03-02T19:23:28.671936","MEAN_MOTION":2.00565488,"ECCENTRICITY":0.0068149,"INCLINATION":54.002,"RA_OF_ASC_NODE":215.0904,"ARG_OF_PERICENTER":204.2599,"MEAN_ANOMALY":325.6195,"EPHEMERIS_TYPE":0,"CLASSIFICATION_TYPE":"U","NORAD_CAT_ID":46826,"ELEMENT_SET_NO":999,"REV_AT_EPOCH":3937,"BSTAR":0,"MEAN_MOTION_DOT":-1.0e-7,"MEAN_MOTION_DDOT":0},{"OBJECT_NAME":"GSAT0223 (GALILEO 27)","OBJECT_ID":"2021-116A","EPOCH":"2026-02-17T00:57:26.434656","MEAN_MOTION":1.70475508,"ECCENTRICITY":0.00028659,"INCLINATION":57.2005,"RA_OF_ASC_NODE":344.9238,"ARG_OF_PERICENTER":278.195,"MEAN_ANOMALY":264.6358,"EPHEMERIS_TYPE":0,"CLASSIFICATION_TYPE":"U","NORAD_CAT_ID":49809,"ELEMENT_SET_NO":999,"REV_AT_EPOCH":2613,"BSTAR":0,"MEAN_MOTION_DOT":-7.8e-7,"MEAN_MOTION_DDOT":0},{"OBJECT_NAME":"GSAT0224 (GALILEO 28)","OBJECT_ID":"2021-116B","EPOCH":"2026-02-23T21:29:03.517440","MEAN_MOTION":1.70475193,"ECCENTRICITY":0.00021827,"INCLINATION":57.1984,"RA_OF_ASC_NODE":344.7369,"ARG_OF_PERICENTER":291.9502,"MEAN_ANOMALY":250.7131,"EPHEMERIS_TYPE":0,"CLASSIFICATION_TYPE":"U","NORAD_CAT_ID":49810,"ELEMENT_SET_NO":999,"REV_AT_EPOCH":2627,"BSTAR":0,"MEAN_MOTION_DOT":-8.8e-7,"MEAN_MOTION_DDOT":0},{"OBJECT_NAME":"GOES 18","OBJECT_ID":"2022-021A","EPOCH":"2026-03-02T18:32:38.789088","MEAN_MOTION":1.00271247,"ECCENTRICITY":5.48e-5,"INCLINATION":0.0258,"RA_OF_ASC_NODE":75.1977,"ARG_OF_PERICENTER":314.4181,"MEAN_ANOMALY":272.075,"EPHEMERIS_TYPE":0,"CLASSIFICATION_TYPE":"U","NORAD_CAT_ID":51850,"ELEMENT_SET_NO":999,"REV_AT_EPOCH":552,"BSTAR":0,"MEAN_MOTION_DOT":8.0e-7,"MEAN_MOTION_DDOT":0},{"OBJECT_NAME":"COSMOS 2557 (706K)","OBJECT_ID":"2022-075A","EPOCH":"2026-03-01T15:33:40.030272","MEAN_MOTION":2.13101625,"ECCENTRICITY":0.00116705,"INCLINATION":64.3609,"RA_OF_ASC_NODE":318.2759,"ARG_OF_PERICENTER":283.4611,"MEAN_ANOMALY":76.4636,"EPHEMERIS_TYPE":0,"CLASSIFICATION_TYPE":"U","NORAD_CAT_ID":52984,"ELEMENT_SET_NO":999,"REV_AT_EPOCH":2842,"BSTAR":0,"MEAN_MOTION_DOT":-4.9e-7,"MEAN_MOTION_DDOT":0},{"OBJECT_NAME":"METEOSAT-12 (MTG-I1)","OBJECT_ID":"2022-170C","EPOCH":"2026-03-02T17:32:14.317728","MEAN_MOTION":1.00274508,"ECCENTRICITY":0.0001928,"INCLINATION":0.7438,"RA_OF_ASC_NODE":28.9118,"ARG_OF_PERICENTER":281.1614,"MEAN_ANOMALY":113.1972,"EPHEMERIS_TYPE":0,"CLASSIFICATION_TYPE":"U","NORAD_CAT_ID":54743,"ELEMENT_SET_NO":999,"REV_AT_EPOCH":1191,"BSTAR":0,"MEAN_MOTION_DOT":-2.3e-7,"MEAN_MOTION_DDOT":0},{"OBJECT_NAME":"METEOR-M2 3","OBJECT_ID":"2023-091A","EPOCH":"2026-03-02T20:40:40.655424","MEAN_MOTION":14.24036842,"ECCENTRICITY":0.0005019,"INCLINATION":98.6229,"RA_OF_ASC_NODE":118.9501,"ARG_OF_PERICENTER":114.6976,"MEAN_ANOMALY":245.4726,"EPHEMERIS_TYPE":0,"CLASSIFICATION_TYPE":"U","NORAD_CAT_ID":57166,"ELEMENT_SET_NO":999,"REV_AT_EPOCH":13938,"BSTAR":3.4032e-5,"MEAN_MOTION_DOT":3.5e-7,"MEAN_MOTION_DDOT":0},{"OBJECT_NAME":"COSMOS 2569 (703K)","OBJECT_ID":"2023-114A","EPOCH":"2026-03-02T17:34:09.125184","MEAN_MOTION":2.13103917,"ECCENTRICITY":0.0012883,"INCLINATION":65.2407,"RA_OF_ASC_NODE":76.2094,"ARG_OF_PERICENTER":291.5074,"MEAN_ANOMALY":68.4049,"EPHEMERIS_TYPE":0,"CLASSIFICATION_TYPE":"U","NORAD_CAT_ID":57517,"ELEMENT_SET_NO":999,"REV_AT_EPOCH":1999,"BSTAR":0,"MEAN_MOTION_DOT":2.9e-7,"MEAN_MOTION_DDOT":0},{"OBJECT_NAME":"METEOR-M2 4","OBJECT_ID":"2024-039A","EPOCH":"2026-03-02T19:49:17.461920","MEAN_MOTION":14.22415848,"ECCENTRICITY":0.000804,"INCLINATION":98.6894,"RA_OF_ASC_NODE":22.5308,"ARG_OF_PERICENTER":113.6029,"MEAN_ANOMALY":246.5993,"EPHEMERIS_TYPE":0,"CLASSIFICATION_TYPE":"U","NORAD_CAT_ID":59051,"ELEMENT_SET_NO":999,"REV_AT_EPOCH":10414,"BSTAR":3.7299e-5,"MEAN_MOTION_DOT":3.9e-7,"MEAN_MOTION_DDOT":0},{"OBJECT_NAME":"GSAT0225 (GALILEO 29)","OBJECT_ID":"2024-079A","EPOCH":"2026-03-02T15:31:53.618304","MEAN_MOTION":1.70474817,"ECCENTRICITY":0.0002516,"INCLINATION":55.0484,"RA_OF_ASC_NODE":104.0564,"ARG_OF_PERICENTER":256.8199,"MEAN_ANOMALY":102.5977,"EPHEMERIS_TYPE":0,"CLASSIFICATION_TYPE":"U","NORAD_CAT_ID":59598,"ELEMENT_SET_NO":999,"REV_AT_EPOCH":1149,"BSTAR":0,"MEAN_MOTION_DOT":1.3e-7,"MEAN_MOTION_DDOT":0},{"OBJECT_NAME":"GSAT0227 (GALILEO 30)","OBJECT_ID":"2024-079C","EPOCH":"2026-03-01T01:43:30.970272","MEAN_MOTION":1.70474778,"ECCENTRICITY":4.154e-5,"INCLINATION":55.0426,"RA_OF_ASC_NODE":104.0995,"ARG_OF_PERICENTER":85.7874,"MEAN_ANOMALY":274.2997,"EPHEMERIS_TYPE":0,"CLASSIFICATION_TYPE":"U","NORAD_CAT_ID":59600,"ELEMENT_SET_NO":999,"REV_AT_EPOCH":1152,"BSTAR":0,"MEAN_MOTION_DOT":1.0e-7,"MEAN_MOTION_DDOT":0},{"OBJECT_NAME":"GSAT0232 (GALILEO 32)","OBJECT_ID":"2024-167A","EPOCH":"2026-02-17T15:52:34.088160","MEAN_MOTION":1.70443939,"ECCENTRICITY":0.00036004,"INCLINATION":55.2225,"RA_OF_ASC_NODE":224.5881,"ARG_OF_PERICENTER":296.6314,"MEAN_ANOMALY":116.1306,"EPHEMERIS_TYPE":0,"CLASSIFICATION_TYPE":"U","NORAD_CAT_ID":61182,"ELEMENT_SET_NO":999,"REV_AT_EPOCH":826,"BSTAR":0,"MEAN_MOTION_DOT":6.9e-7,"MEAN_MOTION_DDOT":0},{"OBJECT_NAME":"GSAT0226 (GALILEO 31)","OBJECT_ID":"2024-167B","EPOCH":"2026-03-02T09:59:45.466080","MEAN_MOTION":1.7047413,"ECCENTRICITY":0.0001611,"INCLINATION":55.2184,"RA_OF_ASC_NODE":224.2466,"ARG_OF_PERICENTER":129.2375,"MEAN_ANOMALY":282.9718,"EPHEMERIS_TYPE":0,"CLASSIFICATION_TYPE":"U","NORAD_CAT_ID":61183,"ELEMENT_SET_NO":999,"REV_AT_EPOCH":903,"BSTAR":0,"MEAN_MOTION_DOT":1.1e-7,"MEAN_MOTION_DDOT":0},{"OBJECT_NAME":"GSAT0233 (GALILEO 33)","OBJECT_ID":"2025-302A","EPOCH":"2026-02-13T12:00:00.000000","MEAN_MOTION":1.70474578,"ECCENTRICITY":0.00030114,"INCLINATION":54.3935,"RA_OF_ASC_NODE":105.2952,"ARG_OF_PERICENTER":207.0582,"MEAN_ANOMALY":359.4109,"EPHEMERIS_TYPE":0,"CLASSIFICATION_TYPE":"U","NORAD_CAT_ID":67160,"ELEMENT_SET_NO":999,"REV_AT_EPOCH":2,"BSTAR":0,"MEAN_MOTION_DOT":-8.0e-8,"MEAN_MOTION_DDOT":0},{"OBJECT_NAME":"GSAT0234 (GALILEO 34)","OBJECT_ID":"2025-302C","EPOCH":"2026-02-13T12:00:00.000000","MEAN_MOTION":1.70475065,"ECCENTRICITY":0.00030814,"INCLINATION":54.3967,"RA_OF_ASC_NODE":105.2938,"ARG_OF_PERICENTER":266.8423,"MEAN_ANOMALY":119.7309,"EPHEMERIS_TYPE":0,"CLASSIFICATION_TYPE":"U","NORAD_CAT_ID":67162,"ELEMENT_SET_NO":999,"REV_AT_EPOCH":12,"BSTAR":0,"MEAN_MOTION_DOT":-8.0e-8,"MEAN_MOTION_DDOT":0}]
